[{"OBJECT_NAME":"STARLINK-31037","OBJECT_ID":"2023-192F","EPOCH":"2026-03-09T06:48:14.961600","MEAN_MOTION":15.30193361,"ECCENTRICITY":0.00012531,"INCLINATION":53.1608,"RA_OF_ASC_NODE":64.6159,"ARG_OF_PERICENTER":93.7826,"MEAN_ANOMALY":266.3319,"EPHEMERIS_TYPE":0,"CLASSIFICATION_TYPE":"U","NORAD_CAT_ID":58536,"ELEMENT_SET_NO":999,"REV_AT_EPOCH":12592,"BSTAR":2.593482e-6,"MEAN_MOTION_DOT":-2.82e-6,"MEAN_MOTION_DDOT":0},{"OBJECT_NAME":"TRANSPORTER-11 OBJECT A","OBJECT_ID":"2024-149A","EPOCH":"2026-03-09T17:54:54.302112","MEAN_MOTION":15.31141332,"ECCENTRICITY":0.00031096,"INCLINATION":97.378,"RA_OF_ASC_NODE":149.0949,"ARG_OF_PERICENTER":191.001,"MEAN_ANOMALY":169.1164,"EPHEMERIS_TYPE":0,"CLASSIFICATION_TYPE":"U","NORAD_CAT_ID":60468,"ELEMENT_SET_NO":999,"REV_AT_EPOCH":8683,"BSTAR":0.00036053677,"MEAN_MOTION_DOT":0.00010774,"MEAN_MOTION_DDOT":0}]
