STARLINK-31037          
1 58536U 23192F   26068.28350650 -.00000282  00000+0  25935-5 0  9996
2 58536  53.1608  64.6159 0001253  93.7826 266.3319 15.30193361125920
TRANSPORTER-11 OBJECT A 
1 60468U 24149A   26068.74646182  .00010774  00000+0  36054-3 0  9993
2 60468  97.3780 149.0949 0003110 191.0010 169.1164 15.31141332 86830
